id,name,district_code,abbr,latitude,longitude,pinyin
1,上海,310000,SH,31.230370,121.473701,shanghai
2,杭州,330100,HZ,30.274151,120.155151,hangzhou
3,北京,110000,BJ,39.904690,116.407173,beijing
4,广州,440100,GZ,23.129080,113.264359,guangzhou
5,天津,120000,TJ,39.085098,117.199371,tianjin
6,南京,320100,NJ,31.841780,118.504669,nanjing
7,武汉,420100,WH,30.592760,114.305252,wuhan
8,苏州,320500,SZ,31.298340,120.583191,suzhou
9,福州,350100,FZ,26.074209,119.296471,fuzhou
10,哈尔滨,230100,HEB,45.802158,126.535797,haerbin
11,深圳,440300,SZ,22.542860,114.059563,shenzhen
12,长春,220100,CC,43.816021,125.323570,changchun
13,厦门,350200,XM,24.479509,118.089478,xiamen
14,成都,510100,CD,30.570200,104.064758,chengdu
15,西安,610100,XA,34.341270,108.939842,xian
16,沈阳,210100,SY,41.805630,123.432358,shenyang
17,合肥,340100,HF,31.820570,117.229012,hefei
18,宁波,330200,NB,29.873859,121.550270,ningbo
19,济南,370100,JN,36.665291,116.994926,jinan
20,大连,210200,DL,38.913689,121.614761,dalian
21,长沙,430100,CS,28.227779,112.938858,changsha
22,扬州,321000,YZ,32.393581,119.412689,yangzhou
23,昆明,530100,KM,24.879660,102.833221,kunming
24,佛山,440600,FS,23.021851,113.121918,foshan
25,南昌,360100,NC,28.682020,115.857941,nanchang
26,珠海,440400,ZH,22.270729,113.576683,zhuhai
27,镇江,321100,ZJ,32.189590,119.425003,zhenjiang
28,青岛,370200,QD,36.066231,120.382988,qingdao
29,徐州,320300,XZ,34.204399,117.285767,xuzhou
30,温州,330300,WZ,27.994921,120.699387,wenzhou
31,石家庄,130100,SJZ,38.042759,114.514297,shijiazhuang
32,郑州,410100,ZZ,34.747250,113.624931,zhengzhou
34,威海,371000,WH,37.513481,122.121712,weihai
35,无锡,320200,WX,31.490990,120.312370,wuxi
38,芜湖,340200,WH,31.352461,118.433128,wuhu
39,南通,320600,NT,31.979580,120.893707,nantong
40,廊坊,131000,LF,39.021770,116.756378,langfang
41,兰州,620100,LZ,36.196220,103.125000,lanzhou
42,湘潭,430300,XT,27.829750,112.944107,xiangtan
43,太原,140100,TY,37.870590,112.550667,taiyuan
44,重庆,500000,CQ,29.564711,106.550728,chongqing
45,南宁,450100,NN,22.816730,108.366898,nanning
47,济宁,370800,JN,35.414589,116.587242,jining
48,潍坊,370700,WF,36.706860,119.161758,weifang
49,景德镇,360200,JDZ,29.268690,117.178391,jingdezhen
50,淄博,370300,ZB,36.813099,118.054802,zibo
51,东莞,441999,DG,23.020691,113.751808,dongguan
52,台州,331000,TZ,28.656111,121.420563,taizhou
53,淮南,340400,HN,32.625488,116.999802,huainan
54,枣庄,370400,ZZ,34.810711,117.321960,zaozhuang
55,嘉兴,330400,JX,30.745010,120.755501,jiaxing
56,梅州,441400,MZ,24.288441,116.122643,meizhou
57,惠州,441300,HZ,23.110750,114.416786,huizhou
58,日照,371100,RZ,35.416458,119.527191,rizhao
59,常州,320400,CZ,31.810720,119.973648,changzhou
60,临沂,371300,LY,35.104649,118.356461,linyi
61,湖州,330500,HZ,30.893049,120.088051,huzhou
62,海口,460100,HK,20.044220,110.199890,haikou
63,秦皇岛,130300,QHD,39.935452,119.599640,qinhuangdao
64,肇庆,441200,ZQ,23.046900,112.465279,zhaoqing
65,铜陵,340700,TL,30.908871,117.742203,tongling
66,九江,360400,JJ,29.705481,116.001457,jiujiang
67,金华,330700,JH,29.078119,119.647591,jinhua
68,包头,150200,BT,40.657810,109.840210,baotou
69,绍兴,330600,SX,30.030331,120.580200,shaoxing
70,安庆,340800,AQ,30.542940,117.063538,anqing
71,盐城,320900,YC,33.349510,120.161636,yancheng
72,韶关,440200,SG,24.810390,113.597229,shaoguan
73,丽水,331100,LS,28.467199,119.922928,lishui
74,泰安,370900,TA,36.199940,117.088402,taian
75,蚌埠,340300,BB,32.915482,117.389320,bengbu
76,新乡,410700,XX,35.303230,113.926750,xinxiang
77,烟台,370600,YT,37.463531,121.448013,yantai
79,湛江,440800,ZJ,21.271339,110.358940,zhanjiang
80,宜昌,420500,YC,30.691860,111.286423,yichang
81,柳州,450200,LZ,24.325430,109.415520,liuzhou
82,绵阳,510700,MY,31.467510,104.679604,mianyang
83,滁州,341100,CZ,32.301811,118.316833,chuzhou
84,聊城,371500,LC,36.457020,115.985489,liaocheng
85,六安,341500,LA,31.734880,116.523239,luan
86,大庆,230600,DQ,46.587582,125.103073,daqing
87,唐山,130200,TS,39.630482,118.180580,tangshan
88,佳木斯,230800,JMS,46.800190,130.320602,jiamusi
89,连云港,320700,LYG,34.596691,119.222954,lianyungang
90,马鞍山,340500,MAS,31.670670,118.506111,maanshan
91,齐齐哈尔,230200,QQHE,47.354309,123.917961,qiqihaer
92,呼和浩特,150100,HHHT,40.841492,111.751991,huhehaote
93,泰州,321200,TZ,32.455460,119.925537,taizhou
94,洛阳,410300,LY,34.618118,112.453613,luoyang
95,保定,130600,BD,38.873959,115.464592,baoding
96,鞍山,210300,AS,41.107769,122.994598,anshan
97,上饶,361100,SR,28.454630,117.943573,shangrao
98,桂林,450300,GL,25.273609,110.290024,guilin
99,南充,511300,NC,30.837311,106.110733,nanchong
100,荆州,421000,JZ,30.334789,112.240692,jingzhou
101,吉林,220200,JL,43.837841,126.549438,jilin
102,泉州,350500,QZ,24.873890,118.675873,quanzhou
103,宜宾,511500,YB,28.751301,104.641701,yibin
104,内江,511000,NJ,29.580151,105.058441,neijiang
105,自贡,510300,ZG,29.339199,104.778442,zigong
106,泸州,510500,LZ,28.871700,105.442574,luzhou
108,抚顺,210400,FS,41.879711,123.957222,fushun
110,锦州,210700,JZ,41.095150,121.127029,jinzhou
111,漳州,350600,ZZ,24.513470,117.647247,zhangzhou
113,泰兴,321283,TX,32.171909,120.052002,taixing
114,淮安,320800,HA,33.610161,119.015953,huaian
115,咸阳,610400,XY,34.329319,108.709290,xianyang
116,衡阳,430400,HY,26.893240,112.571953,hengyang
117,南平,350700,NP,26.641520,118.177834,nanping
118,阜新,210900,FX,42.021660,121.670113,fuxin
119,益阳,430900,YY,28.553909,112.355164,yiyang
120,常德,430700,CD,29.031580,111.698540,changde
123,茂名,440900,MM,21.663290,110.925232,maoming
124,岳阳,430600,YY,29.357281,113.129189,yueyang
126,株洲,430200,ZZ,27.827669,113.133957,zhuzhou
127,新余,360500,XY,27.817760,114.917130,xinyu
128,宜春,360900,YC,27.814430,114.416122,yichun
129,赣州,360700,GZ,25.831091,114.934761,ganzhou
130,江门,440700,JM,22.578650,113.081612,jiangmen
131,德阳,510600,DY,31.126789,104.397903,deyang
132,东营,370500,DY,37.433651,118.674660,dongying
133,怀化,431200,HH,27.569740,110.001602,huaihua
134,滨州,371600,BZ,37.382111,117.972794,binzhou
135,宿州,341300,SZ,33.646141,116.963913,suzhou
136,毕节,520500,BJ,27.298470,105.305038,bijie
137,贵阳,520100,GY,26.647020,106.630241,guiyang
138,牡丹江,231000,MDJ,44.552689,129.632446,mudanjiang
139,乐山,511100,LS,29.552210,103.765388,leshan
140,凯里,522601,KL,26.567560,107.980400,kaili
143,娄底,431300,LD,27.697281,111.994583,loudi
144,焦作,410800,JZ,35.215630,113.242012,jiaozuo
145,丹东,210600,DD,39.999802,124.356010,dandong
150,萍乡,360300,PX,27.622890,113.854271,pingxiang
151,荆门,420800,JM,31.035460,112.199448,jingmen
152,黄石,420200,HS,30.199530,115.038902,huangshi
153,晋中,140700,JZ,37.687019,112.752777,jinzhong
154,张家口,130700,ZJK,40.824440,114.887550,zhangjiakou
155,丽江,530700,LJ,26.856480,100.227097,lijiang
156,百色,451000,BS,23.902161,106.618378,baise
157,钦州,450700,QZ,21.979700,108.654312,qinzhou
165,三亚,460200,SY,18.252480,109.512093,sanya
166,运城,140800,YC,35.026279,111.006989,yuncheng
167,延边,222400,YBZXZZZZ,42.891190,129.509094,yan bian
168,临汾,141000,LF,36.088219,111.519623,linfen
169,大同,140200,DT,40.076370,113.300011,datong
170,邯郸,130400,HD,36.625561,114.539177,handan
171,四平,220300,SP,43.166458,124.350357,siping
172,承德,130800,CD,40.951500,117.963402,chengde
173,邵阳,430500,SY,27.238899,111.467697,shaoyang
174,大理,532901,DL,25.591579,100.229759,dali
175,沧州,130900,CZ,38.304409,116.838692,cangzhou
176,永州,431100,YZ,26.420340,111.612251,yongzhou
177,菏泽,371700,HZ,35.233631,115.481148,heze
178,郴州,431000,CZ,25.770630,113.014847,chenzhou
179,邢台,130500,XT,37.070549,114.504433,xingtai
180,莆田,350300,PT,25.454000,119.007713,putian
181,龙岩,350800,LY,25.075041,117.017220,longyan
182,衢州,330800,QZ,28.935921,118.874191,quzhou
183,开封,410200,KF,34.797260,114.307312,kaifeng
184,鄂州,420700,EZ,30.390850,114.894951,ezhou
191,义乌,330782,YW,29.305580,120.074677,yiwu
194,银川,640100,YC,38.486439,106.232483,yinchuan
195,阜阳,341200,FY,32.889629,115.814949,fuyang
196,十堰,420300,SY,32.615768,110.187340,shiyan
197,广汉,510681,GHS,30.977060,104.282494,guanghanshi
198,许昌,411000,XC,34.035702,113.852333,xuchang
199,黄山,341000,HS,29.715170,118.338661,huangshan
200,汕头,440500,ST,23.353500,116.682213,shantou
201,罗定,445381,LD,22.768299,111.570038,luoding
202,阳江,441700,YJ,21.858290,111.982559,yangjiang
203,中山,442099,ZS,22.515949,113.392601,zhongshan
204,周口,411600,ZK,33.625832,114.696953,zhoukou
205,孝感,420900,XG,30.924829,113.916451,xiaogan
206,宿迁,321300,SQ,33.961929,118.275490,suqian
213,峨眉山,511181,EMS,29.601250,103.484467,emeishan
214,淮北,340600,HB,33.670780,116.926224,huaibei
215,香港,810000,XG,22.276283,114.163826,xianggang
216,澳门,820000,AM,22.186834,113.543030,aomen
217,黄冈,421100,HG,30.453470,114.872383,huanggang
218,葫芦岛,211400,HLD,40.710999,120.836990,huludao
219,抚州,361000,FZ,27.947809,116.358093,fuzhou
220,吉安,360800,JA,27.113819,114.993759,jian
221,鸡西,230300,JX,45.295238,130.969543,jixi
222,辽阳,211000,LY,41.268089,123.237358,liaoyang
223,白城,220800,BC,45.619598,122.838707,baicheng
224,德州,371400,DZ,37.435501,116.359268,dezhou
226,铜仁,520600,TR,27.690660,109.180992,tongren
227,辽源,220400,LY,42.888050,125.143677,liaoyuan
228,绥化,231200,SH,46.652458,126.969322,suihua
229,恩施,422801,ES,30.295040,109.479179,enshi
230,咸宁,421200,XN,29.841261,114.322449,xianning
231,揭阳,445200,JY,23.549721,116.372711,jieyang
232,拉萨,540100,LS,29.644150,91.114502,lasa
233,西宁,630100,XN,36.617290,101.777817,xining
234,信阳,411500,XY,32.147141,114.092789,xinyang
235,潮州,445100,CZ,23.656700,116.622963,chaozhou
236,乌鲁木齐,650100,WLMQ,43.826630,87.616882,wulumuqi
237,长治,140400,CZ,36.195808,113.116493,changzhi
238,巢湖,340181,CH,31.623289,117.889374,chaohu
239,通化,220500,TH,41.728291,125.939903,tonghua
240,雅安,511800,YA,30.015430,103.039803,yaan
241,襄阳,420600,XY,32.008999,112.122551,xiangyang
242,延安,610600,YA,36.585289,109.489777,yanan
243,梧州,450400,WZ,23.477030,111.279129,wuzhou
244,宝鸡,610300,BJ,34.361938,107.237320,baoji
245,红河,532529,HHZZZ,23.369070,102.420792,honghezizhizhou
246,池州,341700,CZ,30.664690,117.491417,chizhou
247,达州,511700,DZ,31.208639,107.467911,dazhou
252,贺州,451100,HZ,24.403460,111.566551,hezhou
253,商丘,411400,SQ,34.414268,115.656349,shangqiu
254,玉林,450900,YL,22.654510,110.180977,yulin
257,安宁,530181,AN,24.919540,102.477997,anning
258,石河子,659001,SHZ,44.306530,86.078934,shihezi
259,汉中,610700,HZ,33.067612,107.023773,hanzhong
260,南阳,411300,NY,32.990730,112.528511,nanyang
261,安阳,410500,AY,36.097710,114.393097,anyang
262,广元,510800,GY,32.435490,105.843567,guangyuan
263,忻州,140900,XZ,38.416698,112.734177,xinzhou
264,保山,530500,BS,25.112049,99.161812,baoshan
265,曲靖,530300,QJS,25.490021,103.796249,qujingshi
266,衡水,131100,HS,37.738861,115.670540,hengshui
267,昌吉,652301,CJ,44.014370,87.267487,changji
268,通辽,150500,TL,43.652470,122.244690,tongliao
269,平顶山,410400,PDS,33.766090,113.192413,pingdingshan
270,三明,350400,SM,26.263849,117.639221,sanming
271,宁德,350900,ND,26.665710,119.548187,ningde
272,安康,610900,AK,32.684860,109.029320,ankang
273,安顺,520400,AS,26.253670,105.946198,anshun
274,吉首,433101,JS,28.262440,109.698112,jishou
278,琼海,469002,QH,19.258381,110.474640,qionghai
279,楚雄,532301,CX,25.032881,101.545822,chuxiong
280,张家界,430800,ZJJ,29.116671,110.478394,zhangjiajie
281,吕梁,141100,LL,37.519341,111.141647,lvliang
282,文昌,469005,WC,19.543289,110.797737,wenchang
286,儋州,469003,DZS,19.520929,109.580688,danzhoushi
289,崇左,451400,CZ,22.378950,107.364853,chongzuo
290,北海,450500,BH,21.481119,109.120079,beihai
291,遂宁,510900,SNS,30.532860,105.592728,suiningshi
292,玉溪,530400,YX,24.351931,102.546600,yuxi
293,文山,532621,WS,23.386780,104.233002,wenshan
294,普洱,530800,PE,22.825211,100.966240,puer
295,昭通,530600,ZTS,27.338169,103.716797,zhaotongshi
296,西昌,513401,XC,27.894489,102.263046,xichang
297,宜州,451281,YZ,24.485130,108.636559,yizhou
298,天水,620500,TS,34.580849,105.724861,tianshui
299,舟山,330900,ZS,29.985390,122.207779,zhoushan
306,渭南,610500,WN,34.499969,109.510147,weinan
307,榆林,610800,YL,38.285198,109.734581,yulin
312,眉山,511400,MS,30.075630,103.848511,meishan
313,亳州,341600,BZ,33.844608,115.779312,bozhou
314,宣城,341800,XC,30.940781,118.758659,xuancheng
315,攀枝花,510400,PZH,26.582279,101.718719,panzhihua
316,广安,511600,GA,30.455959,106.633217,guangan
317,巴中,511900,BZ,31.867149,106.747330,bazhong
319,江油,510781,JY,31.756910,104.724579,jiangyou
323,资阳,512000,ZY,30.128590,104.627983,ziyang
325,绵竹,510683,MZ,31.337761,104.220833,mianzhu
326,库尔勒,652801,KEL,41.726429,86.173691,kuerle
327,阿拉尔,659002,ALE,40.547981,81.280670,alaer
329,石狮,350581,SS,24.731720,118.648048,shishi
334,晋江,350582,JJ,24.781441,118.551987,jinjiang
335,伊宁市,654002,YNS,43.909500,81.277252,yiningshi
336,本溪,210500,BX,41.294128,123.766861,benxi
337,赤峰,150400,CF,42.258598,118.888939,chifeng
339,营口,210800,YK,40.666828,122.234901,yingkou
340,盘锦,211100,PJ,41.119961,122.070778,panjin
341,庆阳,621000,QY,35.709782,107.642921,qingyang
342,张掖,620700,ZY,38.925919,100.449806,zhangye
347,三河,131082,SH,39.982460,117.078217,sanhe
349,丹阳,321181,DY,32.009449,119.606941,danyang
350,仙桃,429004,XT,30.362511,113.454498,xiantao
351,任丘,130982,RQ,38.711639,116.099541,renqiu
353,即墨,370282,JM,36.389320,120.447151,jimo
354,宜兴,320282,YX,31.340420,119.823463,yixin
355,常熟,320581,CS,31.653820,120.752373,changshu
356,延吉,222401,YJ,42.891071,129.509094,yanji
357,张家港,320582,ZJG,31.875469,120.555496,zhangjiagang
358,昆山,320583,KS,31.384750,120.981812,kunshan
359,景洪,532801,JH,22.000080,100.771629,jinghong
360,朝阳,211300,CY,41.573471,120.450798,chaoyang
361,松原,220700,SY,45.141102,124.825150,songyuan
363,武安,130481,WA,36.696709,114.203758,wuan
364,江阴,320281,JY,31.920050,120.285400,jiangyin
365,河源,441600,HY,23.743650,114.700653,heyuan
366,河间,130984,HJ,38.445480,116.098999,hejian
367,泊头,130981,BT,38.083641,116.578278,botou
368,海城,210381,HC,40.881451,122.684631,haicheng
370,涿州,130681,ZZ,39.485291,115.974388,zhuozhou
371,清远,441800,QY,23.682011,113.056152,qingyuan
373,澄海,440515,CH,23.466129,116.756081,chenghai
374,濮阳市,410900,PA,35.895161,115.498688,puyang
375,瓦房店,210281,WFD,39.626438,121.979950,wafangdian
377,蒙自,532503,MZ,23.396219,103.364807,mengzi
378,迁安,130283,QA,39.998360,118.700729,qianan
379,遵义,520300,ZY,28.175440,107.816093,zunyi
380,遵化,130281,ZH,40.189240,117.965668,zunhua
382,铁岭,211200,TL,42.286201,123.842407,tieling
383,随州,421300,SZ,31.690130,113.382622,suizhou
384,鹰潭,360600,YT,28.260189,117.069191,yingtan
385,黄骅,130983,HH,38.371391,117.330116,huanghua
391,莱芜,371200,LW,36.213589,117.676666,laiwu
392,朔州,140600,SZ,39.331589,112.431808,shuozhou
393,乌海,150300,WH,39.653839,106.795464,wuhai
394,乌兰察布,150900,WLCB,40.993912,113.133759,wulanchabu
395,鄂尔多斯,150600,EEDS,39.608452,109.780869,eerduosi
396,吴忠,640300,WZ,37.997551,106.198792,wuzhong
397,白山,220600,BS,41.940800,126.424431,baishan
398,呼伦贝尔,150700,HLBE,49.211632,119.765839,hulunbeier
399,驻马店,411700,ZMD,33.011421,114.022987,zhumadian
400,漯河,411100,LH,33.581490,114.016808,luohe
401,三门峡,411200,SMX,34.772610,111.200302,sanmenxia
406,鹤壁,410600,HB,35.747002,114.297447,hebi
415,济源,419001,JY,35.067070,112.602730,jiyuan
417,巩义,410181,GY,34.747978,113.022057,gongyi
421,云浮,445300,YF,22.915251,112.044533,yunfu
422,巴南,500113,BN,29.402679,106.540413,banan
423,北碚,500109,BB,29.805830,106.396278,beibei
425,璧山,500227,BS,29.592020,106.227417,bishan
426,大渡口,500104,DDK,29.484079,106.482246,dadukou
427,大足,500111,DZ,29.486040,105.780167,dazu
428,都江堰,510181,DJY,30.988371,103.646622,doujiangyan
429,涪陵,500102,FL,29.703150,107.389816,fuling
431,贵港,450800,GG,23.113060,109.597641,guigang
432,合川,500117,HC,29.972879,106.276787,hechuan
433,河西,120103,HX,39.109539,117.223358,hexi
434,简阳,512081,JY,30.411329,104.547333,jianyang
435,江北,500105,JB,29.606609,106.574387,jiangbei
436,江津,500116,JJ,29.290140,106.259361,jiangjin
437,晋城,140500,JC,35.490391,112.851128,jincheng
438,九龙坡,500107,JLP,29.502069,106.511398,jiulongpo
439,开县,500234,KX,31.160980,108.393112,kaixian
441,六盘水,520200,LPS,26.684690,104.746681,liupanshui
442,南岸,500108,NA,29.521681,106.562561,nanan
443,南川,500119,NC,29.157881,107.098961,nanchuan
444,綦江,500110,QJ,28.964630,106.928520,qijiang
445,潜江,429005,QJ,30.401470,112.899300,qianjiang
446,荣昌县,500226,RCX,29.404850,105.594437,rongchangxian
447,沙坪坝,500106,SPB,29.540979,106.457733,shapingba
449,万州,500101,WZ,30.807899,108.408730,wanzhou
450,永川,500118,YC,29.356001,105.927094,yongchuan
451,渝北,500112,YB,29.717979,106.630432,yubei
452,渝中,500103,YZ,29.553141,106.568604,yuzhong
453,长寿,500115,ZS,29.857809,107.081047,zhangshou
454,太和,341222,TH,33.160259,115.622032,taihe
455,无为,340225,WW,31.303169,117.902237,wuwei
456,庐江,340124,LJ,31.255671,117.287361,lujiang
457,颍上,341226,YS,32.628929,116.264549,yingshang
458,寿县,341521,SX,32.573318,116.787079,shouxian
459,肥东,340122,FD,31.887699,117.469276,feidong
460,肥西,340123,FX,31.706530,117.158401,feixi
461,天长,341181,TC,32.689449,119.003548,tianchang
462,临泉,341221,LQ,33.064571,115.258110,linquan
463,涡阳,341621,WY,33.492851,116.215813,woyang
464,当涂,340521,DT,31.569901,118.497803,dangtu
465,砀山,341321,DS,34.440971,116.366058,dangshan
466,霍邱,341522,HQ,32.353199,116.278229,huoqiu
467,舒城,341523,SC,31.462090,116.948700,shucheng
468,阜南,341225,FN,32.658871,115.593193,funan
469,蒙城,341622,MC,33.265839,116.564499,mengcheng
470,利辛,341623,LX,33.144840,116.208389,lixin
471,怀远,340321,HY,32.970100,117.205139,huaiyuan
472,灵璧,341323,LB,33.542320,117.558548,lingbi
473,濉溪,340621,SX,33.915371,116.766197,suixi
474,桐城,340881,TC,31.035851,116.974159,tongcheng
475,凤台,340421,FT,32.709461,116.710770,fengtai
476,萧县,341322,XX,34.188759,116.947243,xiaoxian
477,广德,341822,GD,30.893801,119.417053,guangde
478,和县,340523,HX,31.744230,118.351448,hexian
479,定远,341125,DY,32.529980,117.698563,dingyuan
480,宁国,341881,NG,30.633640,118.983360,ningguo
481,怀宁,340822,HN,30.733810,116.829742,huaining
482,长丰,340121,CF,32.477959,117.167664,changfeng
483,五河,340322,WH,33.145069,117.885292,wuhe
484,东至,341721,DZ,30.096630,117.027657,dongzhi
485,枞阳,340823,ZY,30.699610,117.220192,zongyang
486,明光,341182,MG,32.776989,117.989441,mingguang
487,界首,341282,JS,33.257179,115.374512,jieshou
488,霍山,341525,HS,31.392790,116.332687,huoshan
489,望江,340827,WJ,30.124420,116.694229,wangjiang
490,凤阳,341126,FY,32.866001,117.561241,fengyang
491,全椒,341124,QJ,32.085300,118.273033,quanjiao
492,潜山,340824,QS,30.631069,116.581329,qianshan
493,密云,110228,MY,40.376251,116.843170,miyun
494,延庆,110229,YQ,40.456779,115.975029,yanqing
495,南安,350583,NA,24.960400,118.386269,nanan
496,惠安,350521,HA,25.030649,118.796951,huian
497,福清,350181,FQ,25.720240,119.384109,fuqing
498,龙海,350681,LH,24.446581,117.818130,longhai
499,安溪,350524,AX,25.055441,118.186852,anxi
500,福安,350981,FA,27.087971,119.647682,fuan
501,仙游,350322,XY,25.362150,118.691811,xianyou
502,闽侯,350121,MH,26.150209,119.131393,minhou
503,漳浦,350623,ZP,24.117100,117.613724,zhangpu
504,福鼎,350982,FD,27.324360,120.216713,fuding
505,长乐,350182,CL,25.962830,119.523239,changle
506,永春,350525,YC,25.321880,118.294243,yongchun
507,永安,350481,YA,25.941380,117.365181,yongan
508,诏安,350624,ZA,23.711519,117.175079,zhaoan
509,建瓯,350783,JO,27.022659,118.304977,jianou
510,连江,350122,LJ,26.197531,119.539574,lianjiang
511,德化,350526,DH,25.491600,118.240982,dehua
512,霞浦,350921,XP,26.885170,120.005562,xiapu
513,邵武,350781,SW,27.340361,117.492531,shaowu
514,长汀,350821,CT,25.833481,116.357651,changting
515,云霄,350622,YX,23.958059,117.339653,yunxiao
516,平和,350628,PH,24.363440,117.315872,pinghe
517,建阳,350784,JY,27.331751,118.120430,jianyang
518,大田,350425,DT,25.692610,117.847130,datian
519,永定,350822,YD,24.723030,116.732018,yongding
520,浦城,350722,PC,27.917210,118.541382,pucheng
521,尤溪,350426,YX,26.170040,118.190491,youxi
522,白银,620400,BY,36.544701,104.137733,baiyin
523,武威,620600,WW,37.928200,102.637970,wuwei
524,平凉,620800,PL,35.543030,106.665298,pingliang
525,临夏,622901,LX,35.604500,103.243172,linxia
526,酒泉,620900,JQ,39.732552,98.493942,jiuquan
527,嘉峪关,620200,JYG,39.772011,98.290108,jiayuguan
528,金昌,620300,JC,38.520061,102.187592,jinchang
529,普宁,445281,PN,23.297359,116.165688,puning
530,潮安,445121,CA,23.462440,116.678093,chaoan
531,增城,440183,ZC,23.260929,113.810898,zengcheng
532,陆丰,441581,LF,22.945110,115.644623,lufeng
533,揭东,445203,JD,23.566059,116.412109,jiedong
534,博罗,441322,BL,23.173149,114.289726,boluo
535,海丰,441521,HF,22.966570,115.323410,haifeng
536,惠来,445224,HL,23.033211,116.295113,huilai
537,惠东,441323,HD,22.984859,114.719994,huidong
538,廉江,440881,LJ,21.609619,110.286247,lianjiang
539,台山,440781,TS,22.251560,112.793900,taishan
540,饶平,445122,RP,23.664120,117.003899,raoping
541,雷州,440882,LZ,20.914440,110.096512,leizhou
542,四会,441284,SH,23.327431,112.734039,sihui
543,兴宁,441481,XN,24.136499,115.731194,xingning
544,汕尾,441500,SW,22.785660,115.375137,shanwei
545,电白,440904,DB,21.514139,111.013557,dianbai
546,吴川,440883,WC,21.441820,110.778236,wuchuan
547,开平,440783,KP,22.376381,112.698509,kaiping
548,英德,441881,YD,24.185720,113.415047,yingde
549,清新,441803,QX,23.734739,113.016579,qingxin
550,鹤山,440784,HS,22.765301,112.964363,heshan
551,高州,440981,GZ,21.918119,110.853378,gaozhou
552,揭西,445222,JX,23.431410,115.841888,jiexi
553,信宜,440983,XY,22.354290,110.947098,xinyi
554,化州,440982,HZ,21.663971,110.639542,huazhou
555,恩平,440785,EP,22.182940,112.305321,enping
556,阳春,441781,YC,22.170300,111.791527,yangchun
557,五华,441424,WH,23.932541,115.776093,wuhua
558,徐闻,440825,XW,20.326521,110.175018,xuwen
559,梅县,441403,MX,24.265390,116.082451,meixian
560,遂溪,440823,SX,21.377081,110.250061,suixi
561,高要,441283,GY,23.025810,112.458389,gaoyao
563,从化,440184,CH,23.548349,113.586456,conghua
564,紫金,441621,ZJ,23.635321,115.183983,zijin
565,阳东,441723,YD,21.868290,112.006699,yangdong
566,北流,450981,BL,22.708370,110.354263,beiliu
568,桂平,450881,GP,23.394100,110.079010,guiping
569,平南,450821,PN,23.539190,110.392151,pingnan
571,兴义,522301,XY,25.091921,104.895531,xingyi
573,黔西,520522,QX,27.008659,106.032303,qianxi
574,织金,520524,ZJ,26.663010,105.774879,zhijin
575,大方,520521,DF,27.141609,105.612999,dafang
576,都匀,522701,DY,26.259790,107.518669,duyun
577,仁怀,520382,RH,27.792339,106.401558,renhuai
578,盘县,520222,PX,25.709930,104.471581,panxian
579,纳雍,520525,NY,26.777700,105.382690,nayong
580,金沙,520523,JS,27.459221,106.220139,jinsha
581,万宁,469006,WN,18.795321,110.389748,wanning
582,澄迈,469023,CM,19.738489,110.004868,chengmai
583,东方,469007,DF,19.096140,108.653671,dongfang
584,临高,469024,LG,19.912430,109.690773,lingao
585,屯昌,469022,TC,19.351820,110.103470,tunchang
586,定安,469021,DA,19.681210,110.359299,dingan
587,定州,130682,DZ,38.516258,114.990250,dingzhou
588,魏县,130434,WX,36.359909,114.938820,weixian
589,永年,130429,YN,36.777710,114.490952,yongnian
590,宁晋,130528,NJ,37.619801,114.919319,ningjin
591,玉田,130229,YT,39.900501,117.738808,yutian
592,磁县,130427,CX,36.373959,114.373917,cixian
593,藁城,130182,GC,38.021660,114.846764,gaocheng
594,高碑店,130684,GBD,39.326580,115.873734,gaobeidian
595,大名,130425,DM,36.285580,115.147881,daming
596,霸州,131081,BZ,39.127090,116.391342,bazhou
597,清苑,130622,QY,38.765259,115.489891,qingyuan
598,辛集,130181,XJ,37.943161,115.217918,xinji
599,临漳,130423,LZ,36.334641,114.619553,linzhang
600,滦县,130223,LX,39.740582,118.703506,luanxian
601,徐水,130625,XS,39.018650,115.655861,xushui
602,文安,131026,WA,38.873280,116.458481,wenan
603,滦南,130224,LN,39.166672,118.068031,luannan
604,沙河,130582,SH,36.855160,114.503319,shahe
605,涉县,130426,SX,36.584949,113.691422,shexian
606,正定,130123,ZD,38.146179,114.570961,zhengding
607,隆尧,130525,LY,37.350250,114.770309,longyao
608,安新,130632,AX,38.935349,115.935638,anxin
609,深州,131182,SZ,38.000221,115.560013,shenzhou
610,景县,131127,JX,37.692341,116.270599,jingxian
611,青县,130922,QX,38.583481,116.803177,qingxian
612,赵县,130133,ZX,37.756310,114.776161,zhaoxian
613,香河,131024,XH,39.761421,117.006447,xianghe
614,新乐,130184,XL,38.343380,114.683838,xinle
615,清河,130534,QH,37.039928,115.667183,qinghe
616,南宫,130581,NG,37.357948,115.408661,nangong
617,盐山,130925,YS,38.058300,117.230247,yanshan
618,大城,131025,DC,38.704689,116.654228,daicheng
619,固安,131022,GA,39.438251,116.298523,guan
621,邓州,411381,DZ,32.687771,112.087357,dengzhou
622,唐河,411328,TH,32.681171,112.807449,tanghe
623,永城,411481,YC,33.929150,116.449463,yongcheng
624,禹州,411081,YZ,34.140480,113.487938,yuzhou
625,新密,410183,XM,34.539520,113.390442,xinmi
627,项城,411681,XC,33.467232,114.875618,xiangcheng
628,新郑,410184,XZ,34.396049,113.741608,xinzheng
629,汝州,410482,RZ,34.167171,112.844368,ruzhou
630,登封,410185,DF,34.453480,113.050278,dengfeng
631,上蔡,411722,SC,33.262550,114.264351,shangcai
632,固始,411525,GS,32.168388,115.654808,gushi
633,淮阳,411626,HY,33.731499,114.886139,huaiyang
635,方城,411322,FC,33.254391,113.012550,fangcheng
636,长垣,410728,CY,35.200489,114.668861,changyuan
637,镇平,411324,ZP,33.033909,112.234482,zhenping
638,太康,411627,TK,34.063789,114.837791,taikang
639,林州,410581,LZ,36.083080,113.819077,linzhou
640,偃师,410381,YS,34.727631,112.789650,yanshi
641,长葛,411082,CG,34.216721,113.768272,changge
642,郸城,411625,DC,33.644749,115.177040,dancheng
643,鹿邑,411628,LY,33.860088,115.484428,luyi
644,荥阳,410182,XY,34.787621,113.383492,xingyang
645,虞城,411425,YC,34.397369,115.865189,yucheng
646,沈丘,411624,SQ,33.409401,115.098557,shenqiu
647,夏邑,411426,XY,34.239288,116.129692,xiayi
648,潢川,411526,HC,32.131561,115.051292,huangchuan
649,临颍,411122,LY,33.809582,113.934433,linying
650,息县,411528,XX,32.342819,114.740242,xixian
651,杞县,410221,QX,34.550339,114.782829,qixian
652,泌阳,411726,BY,32.724098,113.327087,biyang
653,辉县,410782,HX,35.462120,113.805397,huixian
654,尉氏,410223,WS,34.411610,114.192970,weishi
655,淅川,411326,XC,33.138149,111.490784,xichuan
656,商水,411623,SS,33.542561,114.611649,shangshui
657,叶县,410422,YX,33.626831,113.357368,yexian
658,社旗,411327,SQ,33.056141,112.947929,sheqi
659,灵宝,411282,LB,34.516850,110.894562,lingbao
660,滑县,410526,HX,35.575340,114.519302,huaxian
661,西华,411622,XH,33.767540,114.529739,xihua
662,鲁山,410423,LS,33.738541,112.908020,lushan
663,柘城,411424,ZC,34.091141,115.305443,zhecheng
664,平舆,411723,PY,32.961830,114.619408,pingyu
665,汝南,411727,RN,33.006851,114.362289,runan
666,沁阳,410882,QY,35.087601,112.950600,qinyang
667,封丘,410727,FQ,35.041191,114.418610,fengqiu
668,新野,411329,XY,32.520931,112.360062,xinye
669,新蔡,411729,XC,32.749260,114.985710,xincai
670,中牟,410122,ZM,34.719028,113.976242,zhongmou
671,襄城,411025,XC,33.850719,113.506691,xiangcheng
672,睢县,411422,HX,34.445259,115.071533,huixian
673,武陟,410823,WZ,35.099522,113.401840,wuzhi
674,郏县,410425,JX,33.971802,113.212624,jiaxian
675,西峡,411323,XX,33.305599,111.472443,xixia
676,西平,411721,XP,33.387798,114.021584,xiping
677,舞阳,411121,WY,33.437649,113.609306,wuyang
678,伊川,410329,YC,34.421349,112.425682,yichuan
679,民权,411421,MQ,34.646912,115.147659,minquan
680,扶沟,411621,FG,34.060001,114.394821,fugou
681,兰考,410225,LK,34.822300,114.821152,lankao
682,淮滨,411527,HB,32.473389,115.419868,huaibin
683,光山,411522,GS,32.009972,114.918777,guangshan
684,博爱,410822,BA,35.171230,113.064529,boai
685,鄢陵,411024,YL,34.102329,114.177391,yanling
686,新安,410323,XA,34.728180,112.132423,xinan
687,南召,411321,NZ,33.489792,112.429138,nanzhao
688,卫辉,410781,WH,35.398472,114.064590,weihui
689,浚县,410621,JX,35.676170,114.550781,junxian
690,宝丰,410421,BF,33.868401,113.054787,baofeng
691,内乡,411325,NX,33.044830,111.849258,neixiang
692,原阳,410725,YY,35.065689,113.939972,yuanyang
693,温县,410825,WX,34.940231,113.080566,wenxian
694,通许,410222,TX,34.480438,114.467407,tongxu
695,罗山,411521,LS,32.203140,114.513069,luoshan
696,伊春,230700,YC,47.727520,128.840485,yichun
697,鹤岗,230400,HG,47.349892,130.297852,hegang
698,七台河,230900,QTH,45.770649,131.003067,qitaihe
699,双鸭山,230500,SYS,46.646580,131.159103,shuangyashan
700,肇东,231282,ZD,46.051208,125.962502,zhaodong
701,五常,230184,WC,44.931911,127.167458,wuchang
702,尚志,230183,SZ,45.211021,127.960274,shangzhi
703,嫩江,231121,NJ,49.185719,125.220940,nenjiang
704,双城,230182,SC,45.383549,126.312271,shuangcheng
705,北安,231181,BA,48.241459,126.491081,beian
706,讷河,230281,NH,48.484192,124.883972,nehe
707,铁力,230781,TL,46.986641,128.032425,tieli
708,富锦,230882,FJ,47.250221,132.037277,fujin
710,天门,429006,TM,30.663389,113.166138,tianmen
711,汉川,420984,HC,30.661221,113.839073,hanchuan
712,大冶,420281,DY,30.095510,114.979767,daye
713,枣阳,420683,ZY,32.128361,112.773979,zaoyang
715,钟祥,420881,ZX,31.167971,112.588173,zhongxiang
716,监利,421023,JL,29.839279,112.904922,jianli
717,黄梅,421127,HM,30.070370,115.944321,huangmei
718,公安,421022,GA,30.058300,112.229477,gongan
719,麻城,421181,MC,31.173330,115.008690,macheng
720,洪湖,421083,HH,29.827560,113.477753,honghu
721,松滋,421087,SZ,30.169600,111.767433,songzi
722,应城,420981,YC,30.928379,113.572922,yingcheng
723,京山,420821,JS,31.018480,113.119530,jingshan
724,广水,421381,GS,31.616859,113.825996,guangshui
725,浠水,421125,XS,30.451839,115.265511,xishui
726,武穴,421182,WX,29.844330,115.561302,wuxue
727,阳新,420222,YX,29.830391,115.215302,yangxin
728,大悟,420922,DW,31.560961,114.126938,dawu
729,安陆,420982,AL,31.255541,113.689133,anlu
730,蕲春,421126,QC,30.226170,115.436211,qichun
731,枝江,420583,ZJ,30.425831,111.760437,zhijiang
732,云梦,420923,YM,31.021030,113.753311,yunmeng
733,石首,421081,SS,29.720850,112.425499,shishou
734,利川,422802,LC,30.291210,108.935951,lichuan
735,老河口,420682,LHK,32.386711,111.675072,laohekou
736,宜城,420684,YC,31.719761,112.257759,yicheng
737,罗田,421123,LT,30.783970,115.399429,luotian
738,红安,421122,HA,31.288099,114.618134,hongan
739,孝昌,420921,XC,31.258030,113.998016,xiaochang
740,赤壁,421281,CB,29.724760,113.900543,chibi
741,谷城,420625,GC,32.263378,111.653038,gucheng
742,南漳,420624,NZ,31.774710,111.839020,nanzhang
743,郧县,420321,YX,32.834881,110.811974,yunxian
744,丹江口,420381,DJK,32.540401,111.513222,danjiangkou
745,宜都,420581,YD,30.378460,111.450104,yidu
746,当阳,420582,DY,30.821180,111.788330,dangyang
747,随县,421321,SX,31.853800,113.299950,suixian
748,沙洋,420822,SY,30.709181,112.588539,shayang
749,崇阳,421223,CY,29.555370,114.038918,chongyang
750,浏阳,430181,LY,28.163780,113.643173,liuyang
751,宁乡,430124,NX,28.277411,112.551826,ningxiang
752,耒阳,430481,LY,26.422430,112.859879,leiyang
753,醴陵,430281,LL,27.646170,113.497032,liling
754,邵东,430521,SD,27.258440,111.744461,shaodong
755,祁东,430426,QD,26.799650,112.090431,qidong
756,汨罗,430681,ML,28.806419,113.067108,miluo
757,平江,430626,PJ,28.702030,113.581337,pingjiang
758,常宁,430482,CN,26.420931,112.399918,changning
759,衡南,430422,HN,26.738310,112.677917,hengnan
760,茶陵,430224,CL,26.777451,113.539268,chaling
761,湘阴,430624,XY,28.689251,112.909172,xiangyin
762,隆回,430524,LH,27.114019,111.032494,longhui
763,攸县,430223,YX,27.000231,113.345688,youxian
764,祁阳,431121,QY,26.580120,111.840149,qiyang
765,南县,430921,NX,29.361620,112.396362,nanxian
766,桃江,430922,TJ,28.518190,112.155708,taojiang
767,澧县,430723,LX,29.633181,111.758682,lixian
768,沅江,430981,YJ,28.844021,112.354683,yuanjiang
769,涟源,431382,LY,27.692711,111.664459,lianyuan
770,安化,430923,AH,28.374281,111.213028,anhua
771,宁远,431126,NY,25.569189,111.944450,ningyuan
772,新化,431322,XH,27.726629,111.327431,xinhua
773,桂阳,431021,GY,25.754101,112.733681,guiyang
774,望城,430112,WC,28.361210,112.817902,wangcheng
775,汉寿,430722,HS,28.905491,111.970428,hanshou
776,桃源,430725,TY,28.902590,111.488930,taoyuan
777,宜章,431022,YZ,25.399570,112.948868,yizhang
778,华容,430623,HR,29.530230,112.540947,huarong
779,冷水江,431381,LSJ,27.686150,111.435249,lengshuijiang
780,湘乡,430381,XX,27.734100,112.535042,xiangxiang
781,新邵,430522,XS,27.320910,111.459000,xinshao
782,临湘,430682,LX,29.476839,113.450577,linxiang
783,溆浦,431224,XP,27.908340,110.594856,xupu
784,洞口,430525,DK,27.060381,110.575829,dongkou
785,资兴,431081,ZX,25.976191,113.236008,zixing
786,永兴,431023,YX,26.127199,113.116592,yongxing
787,衡东,430424,HD,27.081160,112.953247,hengdong
788,武冈,430581,WG,26.726589,110.631378,wugang
789,东安,431122,DA,26.392059,111.316437,dongan
790,石门,430726,SM,29.584129,111.379822,shimen
791,双峰,431321,SF,27.457020,112.193916,shuangfeng
792,道县,431124,DX,25.527531,111.600067,daoxian
793,洪江,431281,HJ,27.209249,109.836548,hongjiang
794,沅陵,431222,YL,28.452770,110.393883,yuanling
795,新宁,430528,XN,26.433460,110.856743,xinning
796,安乡,430721,AX,29.411421,112.170959,anxiang
797,慈利,430821,CL,29.429701,111.139214,cili
798,临澧,430724,LL,29.440981,111.647346,linli
799,龙山,433130,LS,29.457899,109.443871,longshan
800,津市,430781,JS,29.605431,111.877411,jinshi
801,安仁,431028,AR,26.709419,113.269478,anren
802,永顺,433127,YS,29.005150,109.848068,yongshun
804,公主岭,220381,GZL,43.504681,124.822800,gongzhuling
805,榆树,220182,YS,44.839890,126.532997,yushu
806,敦化,222403,DH,43.372711,128.232056,dunhua
807,梅河口,220581,MHK,42.538731,125.712097,meihekou
808,舒兰,220283,SL,44.405861,126.965317,shulan
809,梨树,220322,LS,43.307171,124.335640,lishu
810,磐石,220284,PS,42.946621,126.060463,panshi
811,抚松,220621,FS,42.342018,127.280357,fusong
812,长岭,220722,CL,44.275909,123.967300,changling
813,大安,220882,DA,45.507111,124.292519,daan
814,蛟河,220281,JH,43.723930,127.344772,jiaohe
815,农安,220122,NA,44.431950,125.185120,nongan
816,桦甸,220282,HD,42.972080,126.746269,huadian
817,九台,220181,JT,44.151741,125.839493,jiutai
818,德惠,220183,DH,44.537090,125.705582,dehui
819,双辽,220382,SL,43.518452,123.502960,shuangliao
820,珲春,222404,HC,42.862492,130.365768,hunchun
821,扶余,220724,FY,44.990139,126.049721,fuyu
822,辉南,220523,HN,42.684990,126.046867,huinan
823,洮南,220881,TN,45.335590,122.786346,taonan
824,汪清,222424,WQ,43.312809,129.771255,wangqing
825,吴江,320509,WJ,31.137621,120.645042,wujiang
826,沭阳,321322,SY,34.112148,118.804062,shuyang
827,邳州,320382,PZ,34.335201,118.012459,pizhou
828,如皋,320682,RG,32.371601,120.573822,rugao
829,兴化,321281,XH,32.910412,119.852722,xinghua
830,沛县,320322,PX,34.721661,116.937500,peixian
832,如东,320623,RD,32.329559,121.185020,rudong
833,江都,321012,JD,32.434582,119.570061,jiangdu
834,东台,320981,DT,32.866951,120.320503,dongtai
835,睢宁,320324,HN,33.912739,117.941078,huining
836,启东,320681,QD,31.808050,121.657867,qidong
837,海门,320684,HM,31.871651,121.181793,haimen
838,海安,320621,HA,32.533081,120.467590,haian
839,滨海,320922,BH,33.989750,119.820641,binhai
840,丰县,320321,FX,34.693958,116.595322,fengxian
841,赣榆,320721,GY,34.840649,119.177299,ganyu
842,太仓,320585,TC,31.459110,121.129753,taicang
843,新沂,320381,XY,34.369270,118.355476,xinyi
844,东海,320722,DH,34.542160,118.771469,donghai
845,射阳,320924,SY,33.774960,120.258148,sheyang
846,靖江,321282,JJ,32.014938,120.274544,jingjiang
847,泗洪,321324,SH,33.459000,118.216240,sihong
848,阜宁,320923,FN,33.759312,119.802582,funing
849,泗阳,321323,SY,33.721008,118.703346,siyang
850,姜堰,321204,JY,32.508820,120.127007,jiangyan
851,建湖,320925,JH,33.464062,119.798576,jianhu
852,溧阳,320481,LY,31.415859,119.484596,liyang
853,涟水,320826,LS,33.780979,119.260887,lianshui
854,高邮,321084,GY,32.781120,119.455582,gaoyou
855,大丰,320982,DF,33.201069,120.501022,dafeng
856,宝应,321023,BY,33.241421,119.358414,baoying
857,灌云,320723,GY,34.284069,119.240959,guanyun
858,句容,321183,JR,31.944820,119.168640,jurong
859,盱眙,320830,XY,33.010891,118.544991,xuyi
860,金坛,320482,JT,31.723221,119.597939,jintan
861,灌南,320724,GN,34.086731,119.315628,guannan
862,仪征,321081,YZ,32.272030,119.184441,yizheng
863,响水,320921,XS,34.199188,119.578392,xiangshui
864,高淳,320118,GC,31.327511,118.892097,gaochun
865,溧水,320117,LS,31.381029,118.969948,lishui
866,扬中,321182,YZ,32.237019,119.796822,yangzhong
867,金湖,320831,JH,33.023590,119.020432,jinhu
868,新建,360122,XJ,28.333691,115.651123,xinjian
869,广丰,361122,GF,28.436310,118.191330,guangfeng
870,鄱阳,361128,PY,29.005630,116.703430,poyang
871,丰城,360981,FC,28.159201,115.771210,fengcheng
872,南康,360703,NK,25.661440,114.765350,nankang
873,乐平,360281,LP,28.961729,117.128998,leping
874,高安,360983,GA,28.417290,115.375618,gaoan
875,余干,361127,YG,28.702110,116.695602,yugan
876,信丰,360722,XF,25.386169,114.922852,xinfeng
877,于都,360731,YD,25.951839,115.415443,yudu
878,玉山,361123,YS,28.681940,118.244812,yushan
879,铅山,361124,YS,28.315350,117.709419,yanshan
880,瑞金,360781,RJ,25.885620,116.027092,ruijin
881,宁都,360730,ND,26.470190,116.009407,ningdu
882,会昌,360733,HC,25.600389,115.786003,huichang
883,修水,360424,XS,29.025330,114.546883,xiushui
884,浮梁,360222,FL,29.351589,117.215233,fuliang
885,贵溪,360681,GX,28.292521,117.245247,guixi
886,永新,360830,YX,26.944981,114.243073,yongxin
887,进贤,360124,JX,28.376789,116.242493,jinxian
888,吉水,360822,JS,27.229759,115.135498,jishui
889,上栗,360322,SL,27.880421,113.795372,shangli
890,兴国,360732,XG,26.337790,115.363136,xingguo
891,永修,360425,YX,29.020969,115.809158,yongxiu
892,赣县,360721,GX,25.860620,115.011749,ganxian
893,樟树,360982,ZS,28.055889,115.546150,zhangshu
894,泰和,360826,TH,26.789930,114.908867,taihe
895,东乡,361029,DX,28.247709,116.603340,dongxiang
896,都昌,360428,DC,29.273069,116.204086,duchang
897,龙南,360727,LN,24.911051,114.789932,longnan
899,庄河,210283,ZH,39.680370,122.966110,zhuanghe
900,普兰店,210282,PLD,39.394428,121.963226,pulandian
901,大石桥,210882,DSQ,40.644482,122.509171,dashiqiao
902,东港,210681,DG,39.861721,124.152092,donggang
903,开原,211282,KY,42.546452,124.038200,kaiyuan
904,凤城,210682,FC,40.452789,124.066048,fengcheng
905,大洼,211121,DW,41.002468,122.082451,dawa
906,盖州,210881,GZ,40.400532,122.348801,gaizhou
907,新民,210181,XM,41.997669,122.828003,xinmin
908,黑山,210726,HS,41.693909,122.120659,heishan
909,凌源,211382,LY,41.245480,119.401337,lingyuan
910,绥中,211421,SZ,40.325649,120.344307,suizhong
911,昌图,211224,CT,42.786129,124.110924,changtu
912,兴城,211481,XC,40.610191,120.756187,xingcheng
913,调兵山,211281,TBS,42.467548,123.566902,tiaobingshan
914,巴彦淖尔,150800,BYNE,40.743172,107.387733,bayannaoer
915,牙克石,150782,YKS,49.285629,120.711739,yakeshi
916,乌兰浩特,152201,WLHT,46.072819,122.093163,wulanhaote
917,满洲里,150781,MZL,49.596550,117.378357,manzhouli
918,准格尔,150622,ZGE,39.864262,111.239868,zhungeer
919,达拉特,150621,DLT,40.400162,110.032928,dalate
920,锡林浩特,152502,XLHT,43.933392,116.086082,xilinhaote
921,石嘴山,640200,SZS,38.984100,106.384178,shizuishan
922,格尔木,632801,GEM,33.660332,90.000000,geermu
923,滕州,370481,TZ,35.113380,117.165962,tengzhou
924,新泰,370982,XT,35.908779,117.767998,xintai
925,诸城,370782,ZC,35.995831,119.409828,zhucheng
926,章丘,370181,ZQ,36.679680,117.525780,zhangqiu
927,邹城,370883,ZC,35.405220,117.003853,zoucheng
929,高密,370785,GM,36.382568,119.755676,gaomi
930,沂水,371323,YS,35.790340,118.627823,yishui
931,曹县,371721,CX,34.825531,115.542137,caoxian
932,寿光,370783,SG,36.855412,118.790977,shouguang
933,平度,370283,PD,36.786701,119.959938,pingdu
934,费县,371325,FX,35.266590,117.977112,feixian
935,肥城,370983,FC,36.182449,116.769173,feicheng
936,郓城,371725,YC,35.599838,115.943642,yuncheng
937,单县,371722,DX,34.794380,116.087242,danxian
938,兰陵,371324,LL,34.857288,118.070717,lanling
939,邹平,371626,ZP,36.862991,117.743088,zouping
940,胶州,370281,JZ,36.264450,120.033539,jiaozhou
941,沂南,371321,YN,35.550011,118.465660,yinan
942,郯城,371322,TC,34.613571,118.367172,tancheng
943,青州,370781,QZ,36.684559,118.479660,qingzhou
944,龙口,370681,LK,37.643452,120.478722,longkou
945,巨野,371724,JY,35.396332,116.094948,juye
946,兖州,370812,YZ,35.552601,116.785698,yanzhou
947,莘县,371522,SX,36.233608,115.670723,shenxian
948,莱西,370285,LX,36.888081,120.517769,laixi
949,莱州,370683,LZ,37.177021,119.942169,laizhou
950,莒南,371327,JN,35.174858,118.835426,junan
951,平邑,371326,PY,35.505871,117.640480,pingyi
952,莱阳,370682,LY,36.978779,120.711807,laiyang
953,荣成,371082,RC,37.165230,122.486282,rongcheng
954,临清,371581,LQ,36.838341,115.705040,linqing
955,临沭,371329,LS,34.919849,118.650627,linshu
956,齐河,371425,QH,36.794922,116.760017,qihe
957,曲阜,370881,QF,35.580818,116.986481,qufu
958,阳谷,371521,YG,36.114471,115.791313,yanggu
959,昌邑,370786,CY,36.858841,119.398621,changyi
960,文登,371081,WD,37.193970,122.058098,wendeng
961,桓台,370321,HT,36.959332,118.097969,huantai
962,昌乐,370725,CL,36.707020,118.829842,changle
963,安丘,370784,AQ,36.478420,119.217842,anqiu
964,微山,370826,WS,34.807178,117.128860,weishan
965,招远,370685,ZY,37.355309,120.434212,zhaoyuan
966,东平,370923,DP,35.937080,116.470238,dongping
967,宁阳,370921,NY,35.759609,116.807266,ningyang
968,莒县,371122,JX,35.579971,118.836868,juxian
969,鄄城,371726,JC,35.563499,115.510048,juancheng
970,博兴,371625,BX,37.152988,118.110962,boxing
971,东明,371728,DM,35.289532,115.090157,dongming
972,乳山,371083,RS,36.920212,121.540199,rushan
973,临朐,370724,LQ,36.512310,118.542999,linqu
974,梁山,370832,LS,35.802399,116.095840,liangshan
975,海阳,370687,HY,36.776451,121.158463,haiyang
976,金乡,370828,JX,35.066608,116.311478,jinxiang
977,沂源,370323,YY,36.184879,118.170769,yiyuan
978,惠民,371621,HM,37.489819,117.509201,huimin
979,茌平,371523,CP,36.580681,116.255219,chiping
980,乐陵,371481,LL,37.729790,117.231712,leling
981,冠县,371525,GX,36.483349,115.442627,guanxian
982,成武,371723,CW,34.952450,115.889641,chengwu
983,汶上,370830,WS,35.732811,116.489166,wenshang
984,夏津,371427,XJ,36.948559,116.001747,xiajin
985,高唐,371526,GT,36.866020,116.231110,gaotang
986,临邑,371424,LY,37.189980,116.866600,linyi
987,广饶,370523,GR,37.053589,118.407021,guangrao
988,嘉祥,370829,JX,35.407501,116.342491,jiaxiang
989,栖霞,370686,QX,37.335049,120.849770,qixia
990,无棣,371623,WD,37.769932,117.625771,wudi
991,武城,371428,WC,37.213169,116.069229,wucheng
992,禹城,371482,YC,36.933941,116.638130,yucheng
993,陵县,371421,LX,37.335659,116.576340,lingxian
994,蒙阴,371328,MY,35.710098,117.944939,mengyin
995,阳泉,140300,YQ,37.856682,113.580467,yangquan
997,孝义,141181,XY,37.145340,111.779030,xiaoyi
998,洪洞,141024,HD,36.253738,111.674957,hongdong
999,高平,140581,GP,35.798069,112.923576,gaoping
1000,介休,140781,JX,37.027100,111.916718,jiexiu
1001,临猗,140821,LY,35.144711,110.774078,linyi
1002,原平,140981,YP,38.730511,112.710922,yuanping
1003,泽州,140525,ZZ,35.500431,112.943657,zezhou
1004,永济,140881,YJ,34.867161,110.447731,yongji
1005,平遥,140728,PY,37.189339,112.175568,pingyao
1006,河津,140882,HJ,35.596432,110.711861,hejin
1007,闻喜,140823,WX,35.356628,111.224716,wenxi
1008,铜川,610200,TC,34.896729,108.945152,tongchuan
1009,神木,610821,SM,38.842388,110.498962,shenmu
1010,崇明,310230,CM,31.622900,121.397301,chongming
1011,双流,510122,SL,30.574471,103.923767,shuangliu
1012,郫县,510124,PX,30.795891,103.902557,pixian
1013,仪陇,511324,YL,31.269979,106.303299,yilong
1016,射洪,510922,SH,30.871130,105.388359,shehong
1018,达县,511721,DX,31.196030,107.511772,daxian
1019,宣汉,511722,XH,31.353861,107.727097,xuanhan
1020,渠县,511725,QX,30.836639,106.972992,quxian
1023,隆昌,511028,LC,29.339479,105.287727,longchang
1024,大竹,511724,DZ,30.736071,107.204407,dazhu
1025,资中,511025,ZZ,29.764160,104.852119,zizhong
1026,泸县,510521,LX,29.151600,105.381851,luxian
1027,仁寿,511421,RS,29.995720,104.134071,renshou
1028,中江,510623,ZJ,31.033039,104.678719,zhongjiang
1029,彭州,510182,PZ,30.990179,103.958107,pengzhou
1030,富顺,510322,FS,29.181271,104.974953,fushun
1031,威远,511024,WY,29.527420,104.668854,weiyuan
1032,安岳,512021,AY,30.097330,105.335373,anyue
1033,南部,511321,NB,31.353161,106.067337,nanbu
1034,平昌,511923,PC,31.560539,107.103577,pingchang
1035,阆中,511381,LZ,31.558371,106.004990,langzhong
1036,邻水,511623,LS,30.334579,106.930481,linshui
1037,崇州,510184,CZ,30.630211,103.672890,chongzhou
1038,合江,510522,HJ,28.811470,105.831352,hejiang
1039,营山,511322,YS,31.076700,106.565529,yingshan
1040,三台,510722,ST,31.095631,105.094589,santai
1041,蓬安,511323,PA,31.028601,106.412300,pengan
1042,邛崃,510183,QL,30.410320,103.464363,qionglai
1043,金堂,510121,JT,30.862030,104.412048,jintang
1044,岳池,511621,YC,30.537951,106.439880,yuechi
1045,大邑,510129,DY,30.587570,103.520851,dayi
1046,荣县,510321,RX,29.444500,104.417664,rongxian
1048,什邡,510682,SF,31.127359,104.166939,shifang
1049,静海,120223,JH,38.947369,116.974281,jinghai
1050,蓟县,120225,JX,40.045769,117.408287,jixian
1051,宁河,120221,NH,39.330761,117.824738,ninghe
1053,克拉玛依,650200,KLMY,44.677620,84.762970,kelamayi
1054,伊宁,654002,YN,43.909500,81.277252,yining
1055,喀什,653101,KS,39.467720,75.993813,kashi
1056,哈密,652201,HM,42.826988,93.514648,hami
1057,阿克苏,652901,AKS,39.483280,81.084320,akesu
1058,库车,652923,KC,41.717411,82.962120,kuche
1059,宣威,530381,XW,26.219891,104.104477,xuanwei
1060,富源,530325,FY,25.674219,104.254852,fuyuan
1061,会泽,530326,HZ,26.417910,103.297371,huize
1063,陆良,530322,LL,25.029409,103.666832,luliang
1064,罗平,530324,LP,24.884680,104.308701,luoping
1065,弥勒,532504,ML,24.410509,103.414650,mile
1066,镇雄,530627,ZX,27.441500,104.873596,zhenxiong
1067,沾益,530328,ZY,25.600090,103.822258,zhanyi
1068,宜良,530125,YL,24.920050,103.141190,yiliang
1069,建水,532524,JS,23.634991,102.826988,jianshui
1070,开远,532502,KY,23.714340,103.266762,kaiyuan
1071,个旧,532501,GJ,23.358990,103.160042,gejiu
1072,祥云,532923,XY,25.483810,100.550591,xiangyun
1073,砚山,532622,YS,23.605860,104.337090,yanshan
1074,腾冲,530522,TC,25.020531,98.490967,tengchong
1075,慈溪,330282,CX,30.169640,121.266472,cixi
1076,瑞安,330381,RA,27.778379,120.655182,ruian
1077,温岭,331081,WL,28.371799,121.385986,wenling
1078,乐清,330382,LQ,28.112890,120.983383,leqing
1079,余姚,330281,YY,30.037109,121.154350,yuyao
1080,苍南,330327,CN,27.517429,120.426308,cangnan
1081,诸暨,330681,ZJ,29.713640,120.236320,zhuji
1082,临海,331082,LH,28.858400,121.144951,linhai
1083,东阳,330783,DY,29.289459,120.241913,dongyang
1084,桐乡,330483,TX,30.630739,120.564323,tongxiang
1085,海宁,330481,HN,30.509380,120.681023,haining
1086,永嘉,330324,YJ,28.153360,120.691711,yongjia
1087,富阳,330183,FY,30.048849,119.960426,fuyang
1088,平湖,330482,PH,30.675850,121.016060,pinghu
1089,上虞,330604,SY,30.032270,120.868584,shangyu
1090,宁海,330226,NH,29.288071,121.429611,ninghai
1091,玉环,331021,YH,28.135889,121.231644,yuhuan
1092,永康,330784,YK,28.888510,120.047310,yongkang
1093,平阳,330326,PY,27.662100,120.565948,pingyang
1094,嵊州,330683,SZ,29.588490,120.821701,shengzhou
1095,嘉善,330421,JS,30.830750,120.927162,jiashan
1096,长兴,330522,CX,31.026630,119.910110,changxing
1097,临安,330185,LA,30.233829,119.724800,linan
1098,象山,330225,XS,29.476650,121.869324,xiangshan
1099,浦江,330726,PJ,29.452511,119.892059,pujiang
1100,德清,330521,DQ,30.542690,119.977539,deqing
1101,海盐,330424,HY,30.525530,120.945793,haiyan
1102,奉化,330283,FH,29.655029,121.406860,fenghua
1103,武义,330723,WY,28.892599,119.816513,wuyi
1104,桐庐,330122,TL,29.793171,119.691498,tonglu
1105,安吉,330523,AJ,30.638241,119.682190,anji
1106,兰溪,330781,LX,29.208380,119.460510,lanxi
1107,江山,330881,JS,28.737249,118.626900,jiangshan
1108,天台,331023,TT,29.143040,121.007278,tiantai
1109,新昌,330624,XC,29.499830,120.903847,xinchang
1110,仙居,331024,XJ,28.846830,120.728813,xianju
1111,建德,330182,JD,29.474751,119.281212,jiande
1112,缙云,331122,JY,28.659281,120.091583,jinyun
1113,三门,331022,SM,29.104670,121.395683,sanmen
1114,青田,331121,QT,28.139870,120.289551,qingtian
1115,龙游,330825,LY,29.028271,119.172249,longyou
1116,岱山,330921,DS,30.243690,122.204979,daishan
1117,龙泉,331181,LQ,28.074341,119.141678,longquan
1118,淳安,330127,CA,29.608521,119.041878,chunan
1121,云阳,500235,YY,30.930630,108.696983,yunyang
1122,奉节,500236,FJ,31.018459,109.464058,fengjie
1123,荣昌,500226,RC,29.404850,105.594437,rongchang
1126,铜梁,500224,TL,29.844749,106.056381,tongliang
1127,潼南,500223,TN,30.190540,105.839523,tongnan
1128,忠县,500233,ZX,30.300261,108.037666,zhongxian
1129,垫江,500231,DJ,30.326799,107.335152,dianjiang
1130,梁平,500228,LP,30.673731,107.802353,liangping
1131,丰都,500230,FD,29.863520,107.730850,fengdu
1132,巫山,500237,WS,31.074619,109.878799,wushan
1133,武隆,500232,WL,29.325430,107.759933,wulong
1134,巫溪,500238,WX,31.398600,109.570160,wuxi
1135,漠河,232723,MH,52.972092,122.538643,mohe
1140,顺平,130636,SP,38.837589,115.135429,shunping
1142,樟木头,441900000,ZMT,23.020691,113.751808,zhangmutou
1143,定边,610825,DB,37.594540,107.601280,dingbian
1144,中卫,640500,ZW,37.500259,105.196762,zhongwei
1145,政和,350725,ZH,27.366091,118.857536,zhenghe
1146,陵水,469028,LS,18.505960,110.037201,lingshui
1147,兰西,231222,LX,46.252411,126.287880,lanxi
1148,龙江,230221,LJ,47.337372,123.204826,longjiang
1149,黑河,231100,HH,50.245232,127.528519,heihe
1150,青阳,341723,QY,30.639351,117.847488,qingyang
1151,繁昌,340222,FC,31.082911,118.199341,fanchang
1152,柘荣,350926,ZR,27.235130,119.900848,zherong
1153,辽中,210122,LZ,41.511799,122.731613,liaozhong
1154,靖边,610824,JB,37.599312,108.795677,jingbian
1155,晋州,130183,JZ,38.033562,115.044098,jinzhou
1156,海伦,231283,HL,47.462101,126.973381,hailun
1157,宾县,230125,BX,45.758640,127.485863,binxian
1158,长泰,350625,CT,24.625799,117.759483,changtai
1159,平谷,110117,PG,40.140621,117.121407,pinggu
1160,沙县,350427,SX,26.396170,117.792679,shaxian
1161,古田,350922,GT,26.577620,118.746063,gutian
1162,正阳,411724,ZY,32.605659,114.392738,zhengyang
1163,绥棱,231226,SL,47.236092,127.114777,suiling
1164,土默特右旗,150221,TMTYQ,40.568829,110.524208,tumoteyouqi
1165,高陵,610126,GL,34.534870,109.088219,gaoling
1166,代县,140923,DX,39.066891,112.959961,daixian
1167,河池,451200,HC,24.692909,108.085403,hechi
1168,常山县,330822,CS,28.901409,118.511162,changshan
1169,阿荣旗,150721,ARQ,48.125820,123.459442,arongqi
1170,寻乌,360734,XW,24.963511,115.646729,xunwu
1171,瑞昌,360481,RC,29.676580,115.681030,ruichang
1172,宁化,350424,NH,26.261780,116.654427,ninghua
1173,怀柔,110116,HY,40.316002,116.631767,huairou
1174,潮南,440514,CN,23.250290,116.433098,chaonan
1175,黔南,522700,QN,26.254271,107.522263,qiannan
1176,黔东南,522600,QDN,26.583639,107.984161,qiandongnan
1177,黔西南,522300,QXN,25.089880,104.904373,qianxinan
1178,濮阳县,410928,PY,35.712212,115.029030,puyangxian
1202,满城县,130621,MCX,38.948921,115.322166,manchengxian
1207,高阳县,130628,GYX,38.700069,115.778839,gaoyangxian
1300,新绛,140825,XJ,35.613697,111.225204,xinjiang
1487,肇源,230622,ZY,45.518833,125.081970,zhaoyuan
1509,明水,231225,MS,47.183529,125.907547,mingshui
1564,武夷山,350782,WYS,27.751734,118.032799,wuyishan
1565,上杭县,350823,SHX,25.049431,116.420258,shanghangxian
1573,安义,360123,AY,28.841333,115.553108,anyi
1583,共青城,360482,GQC,29.248400,115.794060,gongqingcheng
1919,甘孜藏族自治州,513300,GZZZZZZ,31.618486,99.991486,ganzizangzuzizhizhou
1938,凉山彝族自治州,513400,LSYZZZZ,27.886763,102.258743,liangshanyizuzizhizhou
2315,敦煌,620982,DH,40.141117,94.664276,dunhuang
2323,定西,621100,DX,35.579578,104.626297,dingxi
2330,陇南,621200,LN,33.388599,104.929382,longnan
2348,合作,623001,HZ,34.985973,102.911491,hezuo
2359,海东,630200,HD,36.502914,102.103271,haidong
2389,玉树,632701,YS,33.004047,97.008522,yushu
2396,德令哈,632802,DLH,37.374554,97.370140,delingha
2409,青铜峡,640381,QTX,38.021507,106.075394,qingtongxia
2410,固原,640400,GY,36.004562,106.285240,guyuan
5035,栾城区,130111,LCQ,37.900249,114.648392,luanchengqu
5042,曹妃甸区,130209,CFD,39.273129,118.460228,caofeidianqu
5861,西峰区,621002,XFQ,35.733711,107.638824,xifengqu
